     2              NAVIGATION DATA                         RINEX VERSION / TYPE
CCRINEXN V1.6.0 UX  CDDIS               09-JAN-10 02:51     PGM / RUN BY / DATE 
IGS BROADCAST EPHEMERIS FILE                                COMMENT             
    0.7451E-08 -0.1490E-07 -0.5960E-07  0.1192E-06          ION ALPHA           
    0.9011E+05 -0.6554E+05 -0.1311E+06  0.4588E+06          ION BETA            
    0.279396772385E-08 0.115463194561E-13   589824     1565 DELTA-UTC: A0,A1,T,W
    15                                                      LEAP SECONDS        
                                                            END OF HEADER       
16 10  1  8  9 59 44.0-0.282553955913E-04-0.409272615798E-11 0.000000000000E+00
    0.430000000000E+02-0.202187500000E+02 0.453911764390E-08-0.313631706964E+01
   -0.929459929466E-06 0.550303154159E-02 0.723451375961E-05 0.515368415260E+04
    0.467984000000E+06-0.670552253723E-07-0.194888662078E+00 0.391155481338E-07
    0.970912456664E+00 0.245375000000E+03-0.273818802224E+00-0.788175687824E-08
    0.334299639207E-09 0.100000000000E+01 0.156500000000E+04 0.000000000000E+00
    0.200000000000E+01 0.000000000000E+00-0.977888703346E-08 0.430000000000E+02
    0.465030000000E+06 0.000000000000E+00 0.000000000000E+00 0.000000000000E+00
19 10  1  8  9 59 44.0-0.839866697788E-05-0.216004991671E-11 0.000000000000E+00
    0.700000000000E+01-0.192500000000E+02 0.482877256633E-08 0.128419149329E+01
   -0.854954123497E-06 0.602977850940E-02 0.793114304542E-05 0.515368394852E+04
    0.467984000000E+06 0.894069671631E-07 0.903025661272E+00 0.614672899246E-07
    0.957565940499E+00 0.220750000000E+03-0.182596070133E+00-0.806319300721E-08
   -0.346085844436E-09 0.100000000000E+01 0.156500000000E+04 0.000000000000E+00
    0.200000000000E+01 0.000000000000E+00-0.144354999065E-07 0.700000000000E+01
    0.460818000000E+06 0.400000000000E+01 0.000000000000E+00 0.000000000000E+00
22 10  1  8  9 59 44.0 0.182100106031E-03-0.909494701773E-12 0.000000000000E+00
    0.000000000000E+00 0.730000000000E+02 0.505342478114E-08 0.231798184257E+01
    0.377371907234E-05 0.513103196863E-02 0.464357435703E-05 0.515366271019E+04
    0.467984000000E+06 0.134110450745E-06 0.295189901842E+01-0.968575477600E-07
    0.937093788826E+00 0.277156250000E+03-0.187996084926E+01-0.836784855448E-08
    0.607168148133E-10 0.100000000000E+01 0.156500000000E+04 0.000000000000E+00
    0.200000000000E+01 0.000000000000E+00-0.176951289177E-07 0.000000000000E+00
    0.462480000000E+06 0.000000000000E+00 0.000000000000E+00 0.000000000000E+00
29 10  1  8  9 59 44.0 0.883843749762E-04 0.284217094304E-11 0.000000000000E+00
    0.900000000000E+01-0.208125000000E+02 0.468233789531E-08-0.159772995209E+01
   -0.115111470222E-05 0.288429111242E-02 0.786036252975E-05 0.515353676224E+04
    0.467984000000E+06-0.119209289551E-06 0.855836280605E+00 0.856816768646E-07
    0.960231943389E+00 0.225718750000E+03-0.127553992596E+01-0.803390607301E-08
   -0.248224625266E-09 0.100000000000E+01 0.156500000000E+04 0.000000000000E+00
    0.200000000000E+01 0.000000000000E+00-0.884756445885E-08 0.900000000000E+01
    0.460800000000E+06 0.000000000000E+00 0.000000000000E+00 0.000000000000E+00
 2 10  1  8 10  0  0.0 0.213081017137E-03 0.432009983342E-11 0.000000000000E+00
    0.410000000000E+02 0.347187500000E+02 0.503842434441E-08 0.845077312496E+00
    0.183843076229E-05 0.925860507414E-02 0.927038490772E-05 0.515375890160E+04
    0.468000000000E+06 0.212341547012E-06 0.185941922069E+01 0.109896063805E-06
    0.939978897345E+00 0.189156250000E+03 0.293799817041E+01-0.823069967737E-08
   -0.263582405902E-09 0.100000000000E+01 0.156500000000E+04 0.000000000000E+00
    0.200000000000E+01 0.000000000000E+00-0.172294676304E-07 0.410000000000E+02
    0.460818000000E+06 0.400000000000E+01 0.000000000000E+00 0.000000000000E+00
 3 10  1  8 10  0  0.0 0.499036628753E-03 0.522959453519E-11 0.000000000000E+00
    0.400000000000E+01-0.231562500000E+02 0.567845081598E-08 0.642076614600E+00
   -0.101327896118E-05 0.127777145244E-01 0.738538801670E-05 0.515367742157E+04
    0.468000000000E+06-0.115483999252E-06 0.708623123946E+00 0.113621354103E-06
    0.926861520966E+00 0.219968750000E+03 0.976472695219E+00-0.870179103595E-08
   -0.275368613065E-09 0.100000000000E+01 0.156500000000E+04 0.000000000000E+00
    0.200000000000E+01 0.000000000000E+00-0.419095158577E-08 0.400000000000E+01
    0.466860000000E+06 0.000000000000E+00 0.000000000000E+00 0.000000000000E+00
 4 10  1  8 10  0  0.0-0.447008758783E-03-0.189857018995E-10 0.000000000000E+00
    0.730000000000E+02 0.437187500000E+02 0.491234741773E-08-0.251245230611E+01
    0.217556953430E-05 0.913461088203E-02 0.987760722637E-05 0.515361101913E+04
    0.468000000000E+06 0.353902578354E-07 0.187748804226E+01-0.115483999252E-06
    0.939150381006E+00 0.178031250000E+03 0.583428281467E+00-0.806390776376E-08
   -0.145006034957E-09 0.100000000000E+01 0.156500000000E+04 0.000000000000E+00
    0.200000000000E+01 0.000000000000E+00-0.605359673500E-08 0.730000000000E+02
    0.460818000000E+06 0.400000000000E+01 0.000000000000E+00 0.000000000000E+00
 5 10  1  8 10  0  0.0-0.189240090549E-04 0.409272615798E-11 0.000000000000E+00
    0.740000000000E+02 0.776875000000E+02 0.455840432068E-08 0.226339071963E+01
    0.403635203838E-05 0.184464745689E-02 0.559166073799E-05 0.515363327599E+04
    0.468000000000E+06-0.204890966415E-07 0.291811435758E+01 0.204890966415E-07
    0.960350868388E+00 0.272968750000E+03 0.297392283171E+00-0.817855472235E-08
    0.857178564240E-11 0.100000000000E+01 0.156500000000E+04 0.000000000000E+00
    0.200000000000E+01 0.000000000000E+00-0.884756445885E-08 0.740000000000E+02
    0.460818000000E+06 0.400000000000E+01 0.000000000000E+00 0.000000000000E+00
 6 10  1  8 10  0  0.0 0.261276029050E-03-0.193267624127E-11 0.000000000000E+00
    0.640000000000E+02-0.246875000000E+02 0.538986736675E-08 0.292069000333E+01
   -0.118464231491E-05 0.586299190763E-02 0.747106969357E-05 0.515366204071E+04
    0.468000000000E+06 0.162050127983E-06 0.778081617080E+00 0.109896063805E-06
    0.934208908522E+00 0.217625000000E+03-0.117041263590E+01-0.830320300459E-08
   -0.203579908492E-09 0.100000000000E+01 0.156500000000E+04 0.000000000000E+00
    0.200000000000E+01 0.000000000000E+00-0.512227416039E-08 0.640000000000E+02
    0.465060000000E+06 0.000000000000E+00 0.000000000000E+00 0.000000000000E+00
 7 10  1  8 10  0  0.0 0.467663630843E-05-0.568434188608E-12 0.000000000000E+00
    0.120000000000E+02-0.641562500000E+02 0.414410106231E-08-0.882344369368E+00
   -0.336952507496E-05 0.323614373337E-02 0.844709575176E-05 0.515373211861E+04
    0.468000000000E+06 0.335276126862E-07-0.126542861802E+01-0.223517417908E-07
    0.969974148322E+00 0.220062500000E+03 0.307220448732E+01-0.791318655047E-08
    0.216437590073E-09 0.100000000000E+01 0.156500000000E+04 0.000000000000E+00
    0.200000000000E+01 0.000000000000E+00-0.107102096081E-07 0.120000000000E+02
    0.460818000000E+06 0.400000000000E+01 0.000000000000E+00 0.000000000000E+00
 8 10  1  8 10  0  0.0 0.192224979401E-05 0.454747350886E-12 0.000000000000E+00
    0.380000000000E+02-0.597812500000E+02 0.372015485084E-08-0.147237759430E+01
   -0.336207449436E-05 0.109748988179E-01 0.847131013870E-05 0.515373292732E+04
    0.468000000000E+06 0.186264514923E-07-0.120037959404E+01-0.119209289551E-06
    0.991278498500E+00 0.232500000000E+03 0.308152534258E+01-0.766746222070E-08
    0.350371731628E-09 0.100000000000E+01 0.156500000000E+04 0.000000000000E+00
    0.200000000000E+01 0.000000000000E+00-0.372529029846E-08 0.380000000000E+02
    0.460818000000E+06 0.400000000000E+01 0.000000000000E+00 0.000000000000E+00
 9 10  1  8 10  0  0.0 0.987681560218E-04 0.227373675443E-11 0.000000000000E+00
    0.870000000000E+02-0.489375000000E+02 0.401409577463E-08-0.164474328813E+01
   -0.219978392124E-05 0.206353255780E-01 0.806711614132E-05 0.515361661148E+04
    0.468000000000E+06 0.186264514923E-06-0.129783346038E+01 0.473111867905E-06
    0.978787444163E+00 0.232218750000E+03 0.152553935412E+01-0.776996650744E-08
    0.113933317209E-09 0.100000000000E+01 0.156500000000E+04 0.000000000000E+00
    0.200000000000E+01 0.000000000000E+00-0.558793544769E-08 0.870000000000E+02
    0.460800000000E+06 0.000000000000E+00 0.000000000000E+00 0.000000000000E+00
11 10  1  8 10  0  0.0-0.385888852179E-04-0.204636307899E-11 0.000000000000E+00
    0.620000000000E+02 0.316875000000E+02 0.619597237283E-08-0.968276632311E+00
    0.165961682796E-05 0.104318644153E-01 0.967644155025E-05 0.515371641350E+04
    0.468000000000E+06 0.188127160072E-06 0.164780751926E+01 0.149011611938E-06
    0.888340812058E+00 0.152250000000E+03 0.781696614927E+00-0.880465246340E-08
   -0.335371112410E-09 0.100000000000E+01 0.156500000000E+04 0.000000000000E+00
    0.200000000000E+01 0.000000000000E+00-0.116415321827E-07 0.620000000000E+02
    0.464520000000E+06 0.000000000000E+00 0.000000000000E+00 0.000000000000E+00
12 10  1  8 10  0  0.0-0.165836885571E-03 0.500222085975E-11 0.000000000000E+00
    0.460000000000E+02-0.164062500000E+02 0.457697636372E-08-0.754627331772E+00
   -0.800937414169E-06 0.328876159619E-02 0.742077827454E-05 0.515377140045E+04
    0.468000000000E+06-0.186264514923E-08-0.212135310527E+00-0.316649675369E-07
    0.969601140785E+00 0.243375000000E+03-0.559077421944E+00-0.805747848346E-08
    0.347871633107E-09 0.100000000000E+01 0.156500000000E+04 0.000000000000E+00
    0.200000000000E+01 0.000000000000E+00-0.121071934700E-07 0.460000000000E+02
    0.460800000000E+06 0.000000000000E+00 0.000000000000E+00 0.000000000000E+00
